[{"OBJECT_NAME":"STARLINK-5284","OBJECT_ID":"2023-010AE","EPOCH":"2026-03-09T23:25:07.560480","MEAN_MOTION":14.98335798,"ECCENTRICITY":0.00027524,"INCLINATION":70.0016,"RA_OF_ASC_NODE":23.671,"ARG_OF_PERICENTER":270.62,"MEAN_ANOMALY":89.4644,"EPHEMERIS_TYPE":0,"CLASSIFICATION_TYPE":"U","NORAD_CAT_ID":55297,"ELEMENT_SET_NO":999,"REV_AT_EPOCH":17331,"BSTAR":-0.00011856401,"MEAN_MOTION_DOT":-1.508e-5,"MEAN_MOTION_DDOT":0},{"OBJECT_NAME":"CZ-4B DEB","OBJECT_ID":"1999-057P","EPOCH":"2026-03-09T10:31:29.691840","MEAN_MOTION":14.91091708,"ECCENTRICITY":0.00558084,"INCLINATION":98.442,"RA_OF_ASC_NODE":235.9963,"ARG_OF_PERICENTER":58.1221,"MEAN_ANOMALY":355.8675,"EPHEMERIS_TYPE":0,"CLASSIFICATION_TYPE":"U","NORAD_CAT_ID":26127,"ELEMENT_SET_NO":999,"REV_AT_EPOCH":36984,"BSTAR":0.001630359,"MEAN_MOTION_DOT":0.00016608,"MEAN_MOTION_DDOT":0}]
